[{"OBJECT_NAME":"HAIYANG-1C","OBJECT_ID":"2018-068A","EPOCH":"2026-03-09T23:11:36.870144","MEAN_MOTION":14.34145137,"ECCENTRICITY":0.00114449,"INCLINATION":98.527,"RA_OF_ASC_NODE":142.6779,"ARG_OF_PERICENTER":34.5915,"MEAN_ANOMALY":325.6013,"EPHEMERIS_TYPE":0,"CLASSIFICATION_TYPE":"U","NORAD_CAT_ID":43609,"ELEMENT_SET_NO":999,"REV_AT_EPOCH":39286,"BSTAR":4.0329797e-5,"MEAN_MOTION_DOT":6.9e-7,"MEAN_MOTION_DDOT":0},{"OBJECT_NAME":"CZ-6A DEB","OBJECT_ID":"2024-140YR","EPOCH":"2026-03-09T14:27:31.833792","MEAN_MOTION":14.46433009,"ECCENTRICITY":0.0070031,"INCLINATION":89.0021,"RA_OF_ASC_NODE":283.5909,"ARG_OF_PERICENTER":262.3203,"MEAN_ANOMALY":97.0044,"EPHEMERIS_TYPE":0,"CLASSIFICATION_TYPE":"U","NORAD_CAT_ID":61424,"ELEMENT_SET_NO":999,"REV_AT_EPOCH":8150,"BSTAR":0.00030291,"MEAN_MOTION_DOT":1.137e-5,"MEAN_MOTION_DDOT":0}]
